FLOCK 4G-6              
1 62660U 25009BD  26068.71061311  .00012261  00000+0  45910-3 0  9991
2 62660  97.3980 150.7943 0002380 348.2637  11.8546 15.27432125121307
STARLINK-36549          
1 67510U 26012T   26068.08057952  .00022153  00000+0  81221-3 0  9997
2 67510  42.9999 317.3954 0001563 262.2929  97.7745 15.27576100  7675
